H1 CPF 01  gfz 2022 08 05 12  7172 terrasarx 
H2 0702601  6201 31698    2022 08 05 12 59 42 2022 08 10 00 00 42   120 1 1  0 0 0
H9
10 0 59796  63342.000000  0   -6840164.281   -798686.851    188693.531
10 0 59796  63462.000000  0   -6825203.134   -617792.456   -715261.682
10 0 59796  63582.000000  0   -6687774.241   -427439.149  -1606636.386
10 0 59796  63702.000000  0   -6430244.416   -233079.328  -2469770.088
10 0 59796  63822.000000  0   -6057185.190    -40170.924  -3289526.544
10 0 59796  63942.000000  0   -5575281.069    145957.470  -4051564.678
10 0 59796  64062.000000  0   -4993196.009    320236.287  -4742589.517
10 0 59796  64182.000000  0   -4321404.372    477976.565  -5350579.985
10 0 59796  64302.000000  0   -3571990.779    614980.868  -5864990.487
10 0 59796  64422.000000  0   -2758423.240    727639.937  -6276923.415
10 0 59796  64542.000000  0   -1895306.395    813014.632  -6579270.499
10 0 59796  64662.000000  0    -998118.479    868902.011  -6766825.007
10 0 59796  64782.000000  0     -82936.150    893884.339  -6836360.782
10 0 59796  64902.000000  0     833846.282    887359.945  -6786680.831
10 0 59796  65022.000000  0    1735802.902    849555.809  -6618638.354
10 0 59796  65142.000000  0    2606765.071    781522.096  -6335124.139
10 0 59796  65262.000000  0    3431106.140    685108.565  -5941021.849
10 0 59796  65382.000000  0    4194018.329    562922.646  -5443131.649
10 0 59796  65502.000000  0    4881778.395    418269.714  -4850064.211
10 0 59796  65622.000000  0    5481999.354    255077.397  -4172103.509
10 0 59796  65742.000000  0    5983861.572     77803.941  -3421038.111
10 0 59796  65862.000000  0    6378317.920   -108667.151  -2609964.503
10 0 59796  65982.000000  0    6658270.178   -299144.353  -1753064.099
10 0 59796  66102.000000  0    6818709.681   -488254.554   -865355.339
10 0 59796  66222.000000  0    6856817.748   -670575.146     37572.406
10 0 59796  66342.000000  0    6772024.155   -840769.397    939838.216
10 0 59796  66462.000000  0    6566020.329   -993721.396   1825557.047
10 0 59796  66582.000000  0    6242727.801  -1124666.888   2679128.774
10 0 59796  66702.000000  0    5808219.162  -1229316.274   3485522.135
10 0 59796  66822.000000  0    5270597.614  -1303966.725   4230545.149
10 0 59796  66942.000000  0    4639837.080  -1345601.815   4901098.984
10 0 59796  67062.000000  0    3927586.960  -1351974.032   5485408.742
10 0 59796  67182.000000  0    3146947.767  -1321669.351   5973228.495
10 0 59796  67302.000000  0    2312221.482  -1254153.603   6356016.373
10 0 59796  67422.000000  0    1438644.135  -1149799.166   6627078.323
10 0 59796  67542.000000  0     542103.428  -1009891.540   6781680.015
10 0 59796  67662.000000  0    -361152.437   -836614.884   6817123.654
10 0 59796  67782.000000  0   -1254808.632   -633017.997   6732790.791
10 0 59796  67902.000000  0   -2122776.807   -402960.832   6530152.164
10 0 59796  68022.000000  0   -2949483.184   -151041.988   6212743.921
10 0 59796  68142.000000  0   -3720148.344    117491.481   5786111.037
10 0 59796  68262.000000  0   -4421054.865    396850.443   5257716.715
10 0 59796  68382.000000  0   -5039797.194    680824.566   4636817.727
10 0 59796  68502.000000  0   -5565509.350    962915.552   3934307.504
10 0 59796  68622.000000  0   -5989064.376   1236480.331   3162527.931
10 0 59796  68742.000000  0   -6303242.126   1494880.998   2335054.099
10 0 59796  68862.000000  0   -6502861.584   1731637.694   1466453.932
10 0 59796  68982.000000  0   -6584874.294   1940581.331    572027.079
10 0 59796  69102.000000  0   -6548414.519   2116002.132   -332472.797
10 0 59796  69222.000000  0   -6394804.565   2252789.097  -1231124.506
10 0 59796  69342.000000  0   -6127516.273   2346557.696  -2108128.013
10 0 59796  69462.000000  0   -5752090.056   2393763.059  -2948090.392
10 0 59796  69582.000000  0   -5276011.577   2391794.891  -3736302.194
10 0 59796  69702.000000  0   -4708551.513   2339051.384  -4458996.597
10 0 59796  69822.000000  0   -4060573.772   2234991.515  -5103587.237
10 0 59796  69942.000000  0   -3344317.223   2080165.200  -5658880.421
10 0 59796  70062.000000  0   -2573157.820   1876221.124  -6115259.730
10 0 59796  70182.000000  0   -1761354.539   1625892.132  -6464842.700
10 0 59796  70302.000000  0    -923783.513   1332958.365  -6701604.744
10 0 59796  70422.000000  0     -75668.566   1002189.528  -6821471.839
10 0 59796  70542.000000  0     767689.159    639267.990  -6822382.315
10 0 59796  70662.000000  0    1591180.324    250693.321  -6704320.700
10 0 59796  70782.000000  0    2380153.072   -156331.746  -6469317.626
10 0 59796  70902.000000  0    3120667.872   -574030.898  -6121418.704
10 0 59796  71022.000000  0    3799741.197   -994198.383  -5666621.719
10 0 59796  71142.000000  0    4405571.867  -1408355.067  -5112783.295
10 0 59796  71262.000000  0    4927750.292  -1807915.955  -4469495.478
10 0 59796  71382.000000  0    5357444.172  -2184365.172  -3747930.291
10 0 59796  71502.000000  0    5687557.332  -2529434.580  -2960654.998
10 0 59796  71622.000000  0    5912857.872  -2835282.702  -2121419.072
10 0 59796  71742.000000  0    6030071.080  -3094669.576  -1244916.138
10 0 59796  71862.000000  0    6037935.161  -3301123.162   -346525.872
10 0 59796  71982.000000  0    5937217.428  -3449093.433    557960.476
10 0 59796  72102.000000  0    5730690.284  -3534089.913   1452624.409
10 0 59796  72222.000000  0    5423066.289  -3552798.597   2321710.608
10 0 59796  72342.000000  0    5020891.866  -3503173.806   3149913.018
10 0 59796  72462.000000  0    4532406.173  -3384504.264   3922651.466
10 0 59796  72582.000000  0    3967368.165  -3197450.852   4626332.724
10 0 59796  72702.000000  0    3336855.500  -2944057.390   5248592.961
10 0 59796  72822.000000  0    2653039.257  -2627731.445   5778514.088
10 0 59796  72942.000000  0    1928942.998  -2253197.382   6206811.596
10 0 59796  73062.000000  0    1178189.767  -1826423.683   6525991.821
10 0 59796  73182.000000  0     414742.646  -1354525.419   6730477.013
10 0 59796  73302.000000  0    -347356.156   -845643.489   6816696.827
10 0 59796  73422.000000  0   -1094243.020   -308803.112   6783146.031
10 0 59796  73542.000000  0   -1812483.832    246245.942   6630408.957
10 0 59796  73662.000000  0   -2489314.644    809205.910   6361150.095
10 0 59796  73782.000000  0   -3112868.519   1369421.097   5980070.834
10 0 59796  73902.000000  0   -3672385.247   1916078.591   5493832.965
10 0 59796  74022.000000  0   -4158401.330   2438416.992   4910949.104
10 0 59796  74142.000000  0   -4562916.130   2925939.996   4241639.593
10 0 59796  74262.000000  0   -4879530.269   3368628.744   3497656.788
10 0 59796  74382.000000  0   -5103552.794   3757149.702   2692080.972
10 0 59796  74502.000000  0   -5232075.501   4083053.759   1839090.464
10 0 59796  74622.000000  0   -5264012.571   4338961.405    953708.411
10 0 59796  74742.000000  0   -5200102.245   4518728.217     51530.910
10 0 59796  74862.000000  0   -5042871.458   4617585.837   -851555.313
10 0 59796  74982.000000  0   -4796564.989   4632257.151  -1739662.141
10 0 59796  75102.000000  0   -4467038.476   4561040.616  -2597189.307
10 0 59796  75222.000000  0   -4061619.830   4403860.680  -3409105.368
10 0 59796  75342.000000  0   -3588942.635   4162285.071  -4161214.382
10 0 59796  75462.000000  0   -3058757.156   3839509.227  -4840402.482
10 0 59796  75582.000000  0   -2481724.927   3440309.166  -5434860.341
10 0 59796  75702.000000  0   -1869202.234   2970965.747  -5934280.627
10 0 59796  75822.000000  0   -1233014.623   2439159.900  -6330027.484
10 0 59796  75942.000000  0    -585228.671   1853841.806  -6615274.060
10 0 59796  76062.000000  0      62073.972   1225078.691  -6785108.846
10 0 59796  76182.000000  0     697016.599    563882.506  -6836611.161
10 0 59796  76302.000000  0    1308140.438   -117979.209  -6768897.305
10 0 59796  76422.000000  0    1884607.223   -808188.855  -6583133.030
10 0 59796  76542.000000  0    2416386.350  -1494095.404  -6282514.989
10 0 59796  76662.000000  0    2894426.896  -2162940.405  -5872221.787
10 0 59796  76782.000000  0    3310811.123  -2802090.162  -5359335.172
10 0 59796  76902.000000  0    3658889.086  -3399274.141  -4752729.654
10 0 59796  77022.000000  0    3933388.242  -3942821.304  -4062927.811
10 0 59796  77142.000000  0    4130497.060  -4421889.613  -3301928.120
10 0 59796  77262.000000  0    4247922.849  -4826686.812  -2483004.967
10 0 59796  77382.000000  0    4284920.886  -5148676.749  -1620481.590
10 0 59796  77502.000000  0    4242291.466  -5380765.465   -729479.399
10 0 59796  77622.000000  0    4122346.101  -5517460.749    174350.866
10 0 59796  77742.000000  0    3928842.363  -5555001.809   1075110.411
10 0 59796  77862.000000  0    3666889.557  -5491455.141   1956940.873
10 0 59796  77982.000000  0    3342825.887  -5326772.107   2804313.120
10 0 59796  78102.000000  0    2964071.118  -5062809.363   3602307.828
10 0 59796  78222.000000  0    2538959.609  -4703310.407   4336884.214
10 0 59796  78342.000000  0    2076557.750  -4253849.247   4995130.526
10 0 59796  78462.000000  0    1586469.827  -3721737.727   5565491.502
10 0 59796  78582.000000  0    1078637.305  -3115899.085   6037969.581
10 0 59796  78702.000000  0     563135.357  -2446710.669   6404294.922
10 0 59796  78822.000000  0      49972.482  -1725820.848   6658063.122
10 0 59796  78942.000000  0    -451102.907   -965943.535   6794840.785
10 0 59796  79062.000000  0    -930786.381   -180632.261   6812239.349
10 0 59796  79182.000000  0   -1380389.354    615962.121   6709953.991
10 0 59796  79302.000000  0   -1791995.960   1409345.883   6489768.350
10 0 59796  79422.000000  0   -2158602.456   2184945.092   6155525.397
10 0 59796  79542.000000  0   -2474237.252   2928373.027   5713064.614
10 0 59796  79662.000000  0   -2734059.326   3625698.300   5170125.932
10 0 59796  79782.000000  0   -2934434.772   4263709.285   4536221.350
99
